WALKER-0727
1 00727U 24001A   25113.717514  .00000001  00000-0  10000-4 0  9997
2 00727  53.0000 165.0000 0001000  90.0000    2.5000 15.00000000 00001
WALKER-0728
1 00728U 24001A   25113.717514  .00000001  00000-0  10000-4 0  9998
2 00728  53.0000 165.0000 0001000  90.0000    7.9545 15.00000000 00001
WALKER-0729
1 00729U 24001A   25113.717514  .00000001  00000-0  10000-4 0  9999
2 00729  53.0000 165.0000 0001000  90.0000   13.4091 15.00000000 00001
WALKER-0730
1 00730U 24001A   25113.717514  .00000001  00000-0  10000-4 0  9990
2 00730  53.0000 165.0000 0001000  90.0000   18.8636 15.00000000 00001
WALKER-0731
1 00731U 24001A   25113.717514  .00000001  00000-0  10000-4 0  9991
2 00731  53.0000 165.0000 0001000  90.0000   24.3182 15.00000000 00001
WALKER-0732
1 00732U 24001A   25113.717514  .00000001  00000-0  10000-4 0  9992
2 00732  53.0000 165.0000 0001000  90.0000   29.7727 15.00000000 00001
WALKER-0733
1 00733U 24001A   25113.717514  .00000001  00000-0  10000-4 0  9993
2 00733  53.0000 165.0000 0001000  90.0000   35.2273 15.00000000 00001
WALKER-0734
1 00734U 24001A   25113.717514  .00000001  00000-0  10000-4 0  9994
2 00734  53.0000 165.0000 0001000  90.0000   40.6818 15.00000000 00001
WALKER-0735
1 00735U 24001A   25113.717514  .00000001  00000-0  10000-4 0  9995
2 00735  53.0000 165.0000 0001000  90.0000   46.1364 15.00000000 00001
WALKER-0736
1 00736U 24001A   25113.717514  .00000001  00000-0  10000-4 0  9996
2 00736  53.0000 165.0000 0001000  90.0000   51.5909 15.00000000 00001
WALKER-0737
1 00737U 24001A   25113.717514  .00000001  00000-0  10000-4 0  9997
2 00737  53.0000 165.0000 0001000  90.0000   57.0455 15.00000000 00001
WALKER-0738
1 00738U 24001A   25113.717514  .00000001  00000-0  10000-4 0  9998
2 00738  53.0000 165.0000 0001000  90.0000   62.5000 15.00000000 00001
WALKER-0739
1 00739U 24001A   25113.717514  .00000001  00000-0  10000-4 0  9999
2 00739  53.0000 165.0000 0001000  90.0000   67.9545 15.00000000 00001
WALKER-0740
1 00740U 24001A   25113.717514  .00000001  00000-0  10000-4 0  9990
2 00740  53.0000 165.0000 0001000  90.0000   73.4091 15.00000000 00001
WALKER-0741
1 00741U 24001A   25113.717514  .00000001  00000-0  10000-4 0  9991
2 00741  53.0000 165.0000 0001000  90.0000   78.8636 15.00000000 00001
WALKER-0742
1 00742U 24001A   25113.717514  .00000001  00000-0  10000-4 0  9992
2 00742  53.0000 165.0000 0001000  90.0000   84.3182 15.00000000 00001
WALKER-0743
1 00743U 24001A   25113.717514  .00000001  00000-0  10000-4 0  9993
2 00743  53.0000 165.0000 0001000  90.0000   89.7727 15.00000000 00001
WALKER-0744
1 00744U 24001A   25113.717514  .00000001  00000-0  10000-4 0  9994
2 00744  53.0000 165.0000 0001000  90.0000   95.2273 15.00000000 00001
WALKER-0745
1 00745U 24001A   25113.717514  .00000001  00000-0  10000-4 0  9995
2 00745  53.0000 165.0000 0001000  90.0000  100.6818 15.00000000 00001
WALKER-0746
1 00746U 24001A   25113.717514  .00000001  00000-0  10000-4 0  9996
2 00746  53.0000 165.0000 0001000  90.0000  106.1364 15.00000000 00001
WALKER-0747
1 00747U 24001A   25113.717514  .00000001  00000-0  10000-4 0  9997
2 00747  53.0000 165.0000 0001000  90.0000  111.5909 15.00000000 00001
WALKER-0748
1 00748U 24001A   25113.717514  .00000001  00000-0  10000-4 0  9998
2 00748  53.0000 165.0000 0001000  90.0000  117.0455 15.00000000 00001
WALKER-0749
1 00749U 24001A   25113.717514  .00000001  00000-0  10000-4 0  9999
2 00749  53.0000 165.0000 0001000  90.0000  122.5000 15.00000000 00001
WALKER-0750
1 00750U 24001A   25113.717514  .00000001  00000-0  10000-4 0  9990
2 00750  53.0000 165.0000 0001000  90.0000  127.9545 15.00000000 00001
WALKER-0751
1 00751U 24001A   25113.717514  .00000001  00000-0  10000-4 0  9991
2 00751  53.0000 165.0000 0001000  90.0000  133.4091 15.00000000 00001
WALKER-0752
1 00752U 24001A   25113.717514  .00000001  00000-0  10000-4 0  9992
2 00752  53.0000 165.0000 0001000  90.0000  138.8636 15.00000000 00001
WALKER-0753
1 00753U 24001A   25113.717514  .00000001  00000-0  10000-4 0  9993
2 00753  53.0000 165.0000 0001000  90.0000  144.3182 15.00000000 00001
WALKER-0754
1 00754U 24001A   25113.717514  .00000001  00000-0  10000-4 0  9994
2 00754  53.0000 165.0000 0001000  90.0000  149.7727 15.00000000 00001
WALKER-0755
1 00755U 24001A   25113.717514  .00000001  00000-0  10000-4 0  9995
2 00755  53.0000 165.0000 0001000  90.0000  155.2273 15.00000000 00001
WALKER-0756
1 00756U 24001A   25113.717514  .00000001  00000-0  10000-4 0  9996
2 00756  53.0000 165.0000 0001000  90.0000  160.6818 15.00000000 00001
WALKER-0757
1 00757U 24001A   25113.717514  .00000001  00000-0  10000-4 0  9997
2 00757  53.0000 165.0000 0001000  90.0000  166.1364 15.00000000 00001
WALKER-0758
1 00758U 24001A   25113.717514  .00000001  00000-0  10000-4 0  9998
2 00758  53.0000 165.0000 0001000  90.0000  171.5909 15.00000000 00001
WALKER-0759
1 00759U 24001A   25113.717514  .00000001  00000-0  10000-4 0  9999
2 00759  53.0000 165.0000 0001000  90.0000  177.0455 15.00000000 00001
WALKER-0760
1 00760U 24001A   25113.717514  .00000001  00000-0  10000-4 0  9990
2 00760  53.0000 165.0000 0001000  90.0000  182.5000 15.00000000 00001
WALKER-0761
1 00761U 24001A   25113.717514  .00000001  00000-0  10000-4 0  9991
2 00761  53.0000 165.0000 0001000  90.0000  187.9545 15.00000000 00001
WALKER-0762
1 00762U 24001A   25113.717514  .00000001  00000-0  10000-4 0  9992
2 00762  53.0000 165.0000 0001000  90.0000  193.4091 15.00000000 00001
WALKER-0763
1 00763U 24001A   25113.717514  .00000001  00000-0  10000-4 0  9993
2 00763  53.0000 165.0000 0001000  90.0000  198.8636 15.00000000 00001
WALKER-0764
1 00764U 24001A   25113.717514  .00000001  00000-0  10000-4 0  9994
2 00764  53.0000 165.0000 0001000  90.0000  204.3182 15.00000000 00001
WALKER-0765
1 00765U 24001A   25113.717514  .00000001  00000-0  10000-4 0  9995
2 00765  53.0000 165.0000 0001000  90.0000  209.7727 15.00000000 00001
WALKER-0766
1 00766U 24001A   25113.717514  .00000001  00000-0  10000-4 0  9996
2 00766  53.0000 165.0000 0001000  90.0000  215.2273 15.00000000 00001
WALKER-0767
1 00767U 24001A   25113.717514  .00000001  00000-0  10000-4 0  9997
2 00767  53.0000 165.0000 0001000  90.0000  220.6818 15.00000000 00001
WALKER-0768
1 00768U 24001A   25113.717514  .00000001  00000-0  10000-4 0  9998
2 00768  53.0000 165.0000 0001000  90.0000  226.1364 15.00000000 00001
WALKER-0769
1 00769U 24001A   25113.717514  .00000001  00000-0  10000-4 0  9999
2 00769  53.0000 165.0000 0001000  90.0000  231.5909 15.00000000 00001
WALKER-0770
1 00770U 24001A   25113.717514  .00000001  00000-0  10000-4 0  9990
2 00770  53.0000 165.0000 0001000  90.0000  237.0455 15.00000000 00001
WALKER-0771
1 00771U 24001A   25113.717514  .00000001  00000-0  10000-4 0  9991
2 00771  53.0000 165.0000 0001000  90.0000  242.5000 15.00000000 00001
WALKER-0772
1 00772U 24001A   25113.717514  .00000001  00000-0  10000-4 0  9992
2 00772  53.0000 165.0000 0001000  90.0000  247.9545 15.00000000 00001
WALKER-0773
1 00773U 24001A   25113.717514  .00000001  00000-0  10000-4 0  9993
2 00773  53.0000 165.0000 0001000  90.0000  253.4091 15.00000000 00001
WALKER-0774
1 00774U 24001A   25113.717514  .00000001  00000-0  10000-4 0  9994
2 00774  53.0000 165.0000 0001000  90.0000  258.8636 15.00000000 00001
WALKER-0775
1 00775U 24001A   25113.717514  .00000001  00000-0  10000-4 0  9995
2 00775  53.0000 165.0000 0001000  90.0000  264.3182 15.00000000 00001
WALKER-0776
1 00776U 24001A   25113.717514  .00000001  00000-0  10000-4 0  9996
2 00776  53.0000 165.0000 0001000  90.0000  269.7727 15.00000000 00001
WALKER-0777
1 00777U 24001A   25113.717514  .00000001  00000-0  10000-4 0  9997
2 00777  53.0000 165.0000 0001000  90.0000  275.2273 15.00000000 00001
WALKER-0778
1 00778U 24001A   25113.717514  .00000001  00000-0  10000-4 0  9998
2 00778  53.0000 165.0000 0001000  90.0000  280.6818 15.00000000 00001
WALKER-0779
1 00779U 24001A   25113.717514  .00000001  00000-0  10000-4 0  9999
2 00779  53.0000 165.0000 0001000  90.0000  286.1364 15.00000000 00001
WALKER-0780
1 00780U 24001A   25113.717514  .00000001  00000-0  10000-4 0  9990
2 00780  53.0000 165.0000 0001000  90.0000  291.5909 15.00000000 00001
WALKER-0781
1 00781U 24001A   25113.717514  .00000001  00000-0  10000-4 0  9991
2 00781  53.0000 165.0000 0001000  90.0000  297.0455 15.00000000 00001
WALKER-0782
1 00782U 24001A   25113.717514  .00000001  00000-0  10000-4 0  9992
2 00782  53.0000 165.0000 0001000  90.0000  302.5000 15.00000000 00001
WALKER-0783
1 00783U 24001A   25113.717514  .00000001  00000-0  10000-4 0  9993
2 00783  53.0000 165.0000 0001000  90.0000  307.9545 15.00000000 00001
WALKER-0784
1 00784U 24001A   25113.717514  .00000001  00000-0  10000-4 0  9994
2 00784  53.0000 165.0000 0001000  90.0000  313.4091 15.00000000 00001
WALKER-0785
1 00785U 24001A   25113.717514  .00000001  00000-0  10000-4 0  9995
2 00785  53.0000 165.0000 0001000  90.0000  318.8636 15.00000000 00001
WALKER-0786
1 00786U 24001A   25113.717514  .00000001  00000-0  10000-4 0  9996
2 00786  53.0000 165.0000 0001000  90.0000  324.3182 15.00000000 00001
WALKER-0787
1 00787U 24001A   25113.717514  .00000001  00000-0  10000-4 0  9997
2 00787  53.0000 165.0000 0001000  90.0000  329.7727 15.00000000 00001
WALKER-0788
1 00788U 24001A   25113.717514  .00000001  00000-0  10000-4 0  9998
2 00788  53.0000 165.0000 0001000  90.0000  335.2273 15.00000000 00001
WALKER-0789
1 00789U 24001A   25113.717514  .00000001  00000-0  10000-4 0  9999
2 00789  53.0000 165.0000 0001000  90.0000  340.6818 15.00000000 00001
WALKER-0790
1 00790U 24001A   25113.717514  .00000001  00000-0  10000-4 0  9990
2 00790  53.0000 165.0000 0001000  90.0000  346.1364 15.00000000 00001
WALKER-0791
1 00791U 24001A   25113.717514  .00000001  00000-0  10000-4 0  9991
2 00791  53.0000 165.0000 0001000  90.0000  351.5909 15.00000000 00001
WALKER-0792
1 00792U 24001A   25113.717514  .00000001  00000-0  10000-4 0  9992
2 00792  53.0000 165.0000 0001000  90.0000  357.0455 15.00000000 00001
